{
    "links": {
        "self": "http://www.neowsapp.com/rest/v1/neo/3694465?api_key=iIulBulltgU6a56xZRHN4H3l9WmuAYTsLGpBGhQ2"
    },
    "id": "3694465",
    "neo_reference_id": "3694465",
    "name": "(2014 UH57)",
    "designation": "2014 UH57",
    "nasa_jpl_url": "http://ssd.jpl.nasa.gov/sbdb.cgi?sstr=3694465",
    "absolute_magnitude_h": 27.6,
    "estimated_diameter": {
        "kilometers": {
            "estimated_diameter_min": 0.0080270317,
            "estimated_diameter_max": 0.0179489885
        },
        "meters": {
            "estimated_diameter_min": 8.0270316728,
            "estimated_diameter_max": 17.948988478
        },
        "miles": {
            "estimated_diameter_min": 0.0049877647,
            "estimated_diameter_max": 0.0111529809
        },
        "feet": {
            "estimated_diameter_min": 26.3354065935,
            "estimated_diameter_max": 58.8877593581
        }
    },
    "is_potentially_hazardous_asteroid": false,
    "close_approach_data": [
        {
            "close_approach_date": "2014-10-27",
            "close_approach_date_full": "2014-Oct-27 16:22",
            "epoch_date_close_approach": 1414426920000,
            "relative_velocity": {
                "kilometers_per_second": "6.7369280747",
                "kilometers_per_hour": "24252.9410688688",
                "miles_per_hour": "15069.8344102646"
            },
            "miss_distance": {
                "astronomical": "0.0198956076",
                "lunar": "7.7393913564",
                "kilometers": "2976340.519315812",
                "miles": "1849412.2403177256"
            },
            "orbiting_body": "Earth"
        }
    ],
    "orbital_data": {
        "orbit_id": "5",
        "orbit_determination_date": "2017-04-06 08:37:54",
        "first_observation_date": "2014-10-25",
        "last_observation_date": "2014-10-31",
        "data_arc_in_days": 6,
        "observations_used": 24,
        "orbit_uncertainty": "8",
        "minimum_orbit_intersection": ".0198659",
        "jupiter_tisserand_invariant": "3.469",
        "epoch_osculation": "2456956.5",
        "eccentricity": ".537380055568927",
        "semi_major_axis": "2.190757000334484",
        "inclination": "1.174724985444681",
        "ascending_node_longitude": "211.3521990465776",
        "orbital_period": "1184.376383707404",
        "perihelion_distance": "1.013487881756723",
        "perihelion_argument": "184.5844978390897",
        "aphelion_distance": "3.368026118912244",
        "perihelion_time": "2456959.834127442451",
        "mean_anomaly": "358.9865671962107",
        "mean_motion": ".3039574285271605",
        "equinox": "J2000",
        "orbit_class": {
            "orbit_class_type": "APO",
            "orbit_class_description": "Near-Earth asteroid orbits which cross the Earth’s orbit similar to that of 1862 Apollo",
            "orbit_class_range": "a (semi-major axis) > 1.0 AU; q (perihelion) < 1.017 AU"
        }
    },
    "is_sentry_object": false
}